CCSDS_OMM_VERS = 2.0
CREATION_DATE  = 
ORIGINATOR     = 

OBJECT_NAME    = STARLINK-37116
OBJECT_ID      = 2026-053G
CENTER_NAME    = EARTH
REF_FRAME      = TEME
TIME_SYSTEM    = UTC
MEAN_ELEMENT_THEORY = SGP/SGP4

EPOCH          = 2026-03-27T20:00:01.999008
MEAN_MOTION    = 15.80837560
ECCENTRICITY   = .0001072
INCLINATION    = 97.2814
RA_OF_ASC_NODE = 321.9697
ARG_OF_PERICENTER = 83.2261
MEAN_ANOMALY   = 277.8264

EPHEMERIS_TYPE = 0
CLASSIFICATION_TYPE = U
NORAD_CAT_ID   = 68213
ELEMENT_SET_NO = 999
REV_AT_EPOCH   = 293
BSTAR          = -.11422E-3
MEAN_MOTION_DOT = -.21986E-3
MEAN_MOTION_DDOT = 0

CCSDS_OMM_VERS = 2.0
CREATION_DATE  = 
ORIGINATOR     = 

OBJECT_NAME    = STARLINK-35854
OBJECT_ID      = 2026-053H
CENTER_NAME    = EARTH
REF_FRAME      = TEME
TIME_SYSTEM    = UTC
MEAN_ELEMENT_THEORY = SGP/SGP4

EPOCH          = 2026-03-27T20:00:01.999008
MEAN_MOTION    = 15.80834554
ECCENTRICITY   = .0000948
INCLINATION    = 97.2816
RA_OF_ASC_NODE = 321.9714
ARG_OF_PERICENTER = 88.8025
MEAN_ANOMALY   = 276.5302

EPHEMERIS_TYPE = 0
CLASSIFICATION_TYPE = U
NORAD_CAT_ID   = 68214
ELEMENT_SET_NO = 999
REV_AT_EPOCH   = 269
BSTAR          = -.10262E-3
MEAN_MOTION_DOT = -.19769E-3
MEAN_MOTION_DDOT = 0

CCSDS_OMM_VERS = 2.0
CREATION_DATE  = 
ORIGINATOR     = 

OBJECT_NAME    = STARLINK-36272
OBJECT_ID      = 2026-053J
CENTER_NAME    = EARTH
REF_FRAME      = TEME
TIME_SYSTEM    = UTC
MEAN_ELEMENT_THEORY = SGP/SGP4

EPOCH          = 2026-03-27T20:00:01.999008
MEAN_MOTION    = 15.80807776
ECCENTRICITY   = .0001234
INCLINATION    = 97.2810
RA_OF_ASC_NODE = 321.9731
ARG_OF_PERICENTER = 77.1558
MEAN_ANOMALY   = 292.4568

EPHEMERIS_TYPE = 0
CLASSIFICATION_TYPE = U
NORAD_CAT_ID   = 68215
ELEMENT_SET_NO = 999
REV_AT_EPOCH   = 282
BSTAR          = .15248E-3
MEAN_MOTION_DOT = .29152E-3
MEAN_MOTION_DDOT = 0

CCSDS_OMM_VERS = 2.0
CREATION_DATE  = 
ORIGINATOR     = 

OBJECT_NAME    = STARLINK-37014
OBJECT_ID      = 2026-053K
CENTER_NAME    = EARTH
REF_FRAME      = TEME
TIME_SYSTEM    = UTC
MEAN_ELEMENT_THEORY = SGP/SGP4

EPOCH          = 2026-03-27T20:00:01.999008
MEAN_MOTION    = 15.80817169
ECCENTRICITY   = .0001022
INCLINATION    = 97.2809
RA_OF_ASC_NODE = 321.9748
ARG_OF_PERICENTER = 94.1000
MEAN_ANOMALY   = 279.7939

EPHEMERIS_TYPE = 0
CLASSIFICATION_TYPE = U
NORAD_CAT_ID   = 68216
ELEMENT_SET_NO = 999
REV_AT_EPOCH   = 293
BSTAR          = -.30841E-4
MEAN_MOTION_DOT = -.6045E-4
MEAN_MOTION_DDOT = 0

CCSDS_OMM_VERS = 2.0
CREATION_DATE  = 
ORIGINATOR     = 

OBJECT_NAME    = STARLINK-37011
OBJECT_ID      = 2026-053L
CENTER_NAME    = EARTH
REF_FRAME      = TEME
TIME_SYSTEM    = UTC
MEAN_ELEMENT_THEORY = SGP/SGP4

EPOCH          = 2026-03-27T20:00:01.999008
MEAN_MOTION    = 15.80823000
ECCENTRICITY   = .00013
INCLINATION    = 97.2807
RA_OF_ASC_NODE = 321.9768
ARG_OF_PERICENTER = 81.7031
MEAN_ANOMALY   = 296.4577

EPHEMERIS_TYPE = 0
CLASSIFICATION_TYPE = U
NORAD_CAT_ID   = 68217
ELEMENT_SET_NO = 999
REV_AT_EPOCH   = 293
BSTAR          = -.9803E-4
MEAN_MOTION_DOT = -.18884E-3
MEAN_MOTION_DDOT = 0

CCSDS_OMM_VERS = 2.0
CREATION_DATE  = 
ORIGINATOR     = 

OBJECT_NAME    = STARLINK-37108
OBJECT_ID      = 2026-053M
CENTER_NAME    = EARTH
REF_FRAME      = TEME
TIME_SYSTEM    = UTC
MEAN_ELEMENT_THEORY = SGP/SGP4

EPOCH          = 2026-03-27T20:00:01.999008
MEAN_MOTION    = 15.80925059
ECCENTRICITY   = .0001484
INCLINATION    = 97.2810
RA_OF_ASC_NODE = 321.9786
ARG_OF_PERICENTER = 105.0507
MEAN_ANOMALY   = 277.3390

EPHEMERIS_TYPE = 0
CLASSIFICATION_TYPE = U
NORAD_CAT_ID   = 68218
ELEMENT_SET_NO = 999
REV_AT_EPOCH   = 293
BSTAR          = -.91458E-3
MEAN_MOTION_DOT = -.172773E-2
MEAN_MOTION_DDOT = 0

CCSDS_OMM_VERS = 2.0
CREATION_DATE  = 
ORIGINATOR     = 

OBJECT_NAME    = STARLINK-37106
OBJECT_ID      = 2026-053N
CENTER_NAME    = EARTH
REF_FRAME      = TEME
TIME_SYSTEM    = UTC
MEAN_ELEMENT_THEORY = SGP/SGP4

EPOCH          = 2026-03-27T20:00:01.999008
MEAN_MOTION    = 15.81055256
ECCENTRICITY   = .0001011
INCLINATION    = 97.2803
RA_OF_ASC_NODE = 321.9802
ARG_OF_PERICENTER = 93.2084
MEAN_ANOMALY   = 293.3849

EPHEMERIS_TYPE = 0
CLASSIFICATION_TYPE = U
NORAD_CAT_ID   = 68219
ELEMENT_SET_NO = 999
REV_AT_EPOCH   = 293
BSTAR          = -.19653E-2
MEAN_MOTION_DOT = -.365255E-2
MEAN_MOTION_DDOT = 0

CCSDS_OMM_VERS = 2.0
CREATION_DATE  = 
ORIGINATOR     = 

OBJECT_NAME    = STARLINK-37030
OBJECT_ID      = 2026-053P
CENTER_NAME    = EARTH
REF_FRAME      = TEME
TIME_SYSTEM    = UTC
MEAN_ELEMENT_THEORY = SGP/SGP4

EPOCH          = 2026-03-27T20:00:01.999008
MEAN_MOTION    = 15.81411604
ECCENTRICITY   = .0001273
INCLINATION    = 97.2794
RA_OF_ASC_NODE = 321.9834
ARG_OF_PERICENTER = 98.9940
MEAN_ANOMALY   = 295.9421

EPHEMERIS_TYPE = 0
CLASSIFICATION_TYPE = U
NORAD_CAT_ID   = 68220
ELEMENT_SET_NO = 999
REV_AT_EPOCH   = 293
BSTAR          = -.46223E-2
MEAN_MOTION_DOT = -.828456E-2
MEAN_MOTION_DDOT = 0

CCSDS_OMM_VERS = 2.0
CREATION_DATE  = 
ORIGINATOR     = 

OBJECT_NAME    = STARLINK-37012
OBJECT_ID      = 2026-053Q
CENTER_NAME    = EARTH
REF_FRAME      = TEME
TIME_SYSTEM    = UTC
MEAN_ELEMENT_THEORY = SGP/SGP4

EPOCH          = 2026-03-27T20:00:01.999008
MEAN_MOTION    = 15.81231198
ECCENTRICITY   = .0001156
INCLINATION    = 97.2796
RA_OF_ASC_NODE = 321.9816
ARG_OF_PERICENTER = 97.5890
MEAN_ANOMALY   = 293.1811

EPHEMERIS_TYPE = 0
CLASSIFICATION_TYPE = U
NORAD_CAT_ID   = 68221
ELEMENT_SET_NO = 999
REV_AT_EPOCH   = 293
BSTAR          = -.32553E-2
MEAN_MOTION_DOT = -.594273E-2
MEAN_MOTION_DDOT = 0

CCSDS_OMM_VERS = 2.0
CREATION_DATE  = 
ORIGINATOR     = 

OBJECT_NAME    = STARLINK-37110
OBJECT_ID      = 2026-053R
CENTER_NAME    = EARTH
REF_FRAME      = TEME
TIME_SYSTEM    = UTC
MEAN_ELEMENT_THEORY = SGP/SGP4

EPOCH          = 2026-03-27T20:00:01.999008
MEAN_MOTION    = 15.81636626
ECCENTRICITY   = .0001104
INCLINATION    = 97.2796
RA_OF_ASC_NODE = 321.9850
ARG_OF_PERICENTER = 106.6738
MEAN_ANOMALY   = 292.3922

EPHEMERIS_TYPE = 0
CLASSIFICATION_TYPE = U
NORAD_CAT_ID   = 68222
ELEMENT_SET_NO = 999
REV_AT_EPOCH   = 293
BSTAR          = -.61073E-2
MEAN_MOTION_DOT = -.1074325E-1
MEAN_MOTION_DDOT = 0

CCSDS_OMM_VERS = 2.0
CREATION_DATE  = 
ORIGINATOR     = 

OBJECT_NAME    = STARLINK-37025
OBJECT_ID      = 2026-053S
CENTER_NAME    = EARTH
REF_FRAME      = TEME
TIME_SYSTEM    = UTC
MEAN_ELEMENT_THEORY = SGP/SGP4

EPOCH          = 2026-03-27T20:00:01.999008
MEAN_MOTION    = 15.81859817
ECCENTRICITY   = .0000948
INCLINATION    = 97.2789
RA_OF_ASC_NODE = 321.9857
ARG_OF_PERICENTER = 118.9717
MEAN_ANOMALY   = 284.2222

EPHEMERIS_TYPE = 0
CLASSIFICATION_TYPE = U
NORAD_CAT_ID   = 68223
ELEMENT_SET_NO = 999
REV_AT_EPOCH   = 293
BSTAR          = -.77645E-2
MEAN_MOTION_DOT = -.1365367E-1
MEAN_MOTION_DDOT = 0

CCSDS_OMM_VERS = 2.0
CREATION_DATE  = 
ORIGINATOR     = 

OBJECT_NAME    = STARLINK-36977
OBJECT_ID      = 2026-053T
CENTER_NAME    = EARTH
REF_FRAME      = TEME
TIME_SYSTEM    = UTC
MEAN_ELEMENT_THEORY = SGP/SGP4

EPOCH          = 2026-03-27T20:00:01.999008
MEAN_MOTION    = 15.82112259
ECCENTRICITY   = .0001147
INCLINATION    = 97.2784
RA_OF_ASC_NODE = 321.9874
ARG_OF_PERICENTER = 83.2539
MEAN_ANOMALY   = 323.9963

EPHEMERIS_TYPE = 0
CLASSIFICATION_TYPE = U
NORAD_CAT_ID   = 68224
ELEMENT_SET_NO = 999
REV_AT_EPOCH   = 282
BSTAR          = -.87347E-2
MEAN_MOTION_DOT = -.1560786E-1
MEAN_MOTION_DDOT = 0

CCSDS_OMM_VERS = 2.0
CREATION_DATE  = 
ORIGINATOR     = 

OBJECT_NAME    = STARLINK-36960
OBJECT_ID      = 2026-053U
CENTER_NAME    = EARTH
REF_FRAME      = TEME
TIME_SYSTEM    = UTC
MEAN_ELEMENT_THEORY = SGP/SGP4

EPOCH          = 2026-03-27T20:00:01.999008
MEAN_MOTION    = 15.82388824
ECCENTRICITY   = .0001226
INCLINATION    = 97.2781
RA_OF_ASC_NODE = 321.9890
ARG_OF_PERICENTER = 100.7051
MEAN_ANOMALY   = 310.5649

EPHEMERIS_TYPE = 0
CLASSIFICATION_TYPE = U
NORAD_CAT_ID   = 68225
ELEMENT_SET_NO = 999
REV_AT_EPOCH   = 291
BSTAR          = -.10058E-1
MEAN_MOTION_DOT = -.1822633E-1
MEAN_MOTION_DDOT = 0

CCSDS_OMM_VERS = 2.0
CREATION_DATE  = 
ORIGINATOR     = 

OBJECT_NAME    = STARLINK-37038
OBJECT_ID      = 2026-053V
CENTER_NAME    = EARTH
REF_FRAME      = TEME
TIME_SYSTEM    = UTC
MEAN_ELEMENT_THEORY = SGP/SGP4

EPOCH          = 2026-03-27T20:00:01.999008
MEAN_MOTION    = 15.82729327
ECCENTRICITY   = .0001268
INCLINATION    = 97.2780
RA_OF_ASC_NODE = 321.9926
ARG_OF_PERICENTER = 94.6201
MEAN_ANOMALY   = 324.7698

EPHEMERIS_TYPE = 0
CLASSIFICATION_TYPE = U
NORAD_CAT_ID   = 68226
ELEMENT_SET_NO = 999
REV_AT_EPOCH   = 291
BSTAR          = -.10693E-1
MEAN_MOTION_DOT = -.1950045E-1
MEAN_MOTION_DDOT = 0

CCSDS_OMM_VERS = 2.0
CREATION_DATE  = 
ORIGINATOR     = 

OBJECT_NAME    = STARLINK-37083
OBJECT_ID      = 2026-053W
CENTER_NAME    = EARTH
REF_FRAME      = TEME
TIME_SYSTEM    = UTC
MEAN_ELEMENT_THEORY = SGP/SGP4

EPOCH          = 2026-03-27T20:00:01.999008
MEAN_MOTION    = 15.82588176
ECCENTRICITY   = .0001352
INCLINATION    = 97.2783
RA_OF_ASC_NODE = 321.9912
ARG_OF_PERICENTER = 91.7405
MEAN_ANOMALY   = 323.5788

EPHEMERIS_TYPE = 0
CLASSIFICATION_TYPE = U
NORAD_CAT_ID   = 68227
ELEMENT_SET_NO = 999
REV_AT_EPOCH   = 293
BSTAR          = -.10639E-1
MEAN_MOTION_DOT = -.1930279E-1
MEAN_MOTION_DDOT = 0

